ONEWEB-0369             
1 49295U 21090S   26160.14538694  .00000007  00000+0 -14026-4 0  9990
2 49295  87.9163 306.5770 0001777  95.5509 264.5826 13.19724216225354
ONEWEB-0370             
1 49296U 21090T   26160.06643431  .00000014  00000+0  27699-5 0  9996
2 49296  87.9191 276.0586 0002099 107.6767 252.4596 13.20770130228790
ONEWEB-0371             
1 49297U 21090U   26160.15327612 -.00000033  00000+0 -11423-3 0  9996
2 49297  87.9170 306.5670 0001794 100.3201 259.8134 13.19724167225394
ONEWEB-0372             
1 49298U 21090V   26160.05619846  .00000018  00000+0  11728-4 0  9999
2 49298  87.9190 276.0623 0001905 101.2446 258.8902 13.20771256228760
ONEWEB-0373             
1 49299U 21090W   26160.08159525  .00000006  00000+0 -16049-4 0  9995
2 49299  87.9188 276.0578 0002035 100.6181 259.5182 13.20770862229953
ONEWEB-0374             
1 49300U 21090X   26160.12636863  .00000232  00000+0  59009-3 0  9990
2 49300  87.8961 291.3039 0002287  87.7232 272.4159 13.14502649226502
ONEWEB-0375             
1 49301U 21090Y   26160.06981691 -.00000034  00000+0 -11442-3 0  9997
2 49301  87.9192 276.0515 0002416  90.6603 269.4807 13.20771032229452
ONEWEB-0376             
1 49302U 21090Z   26160.15169943 -.00000047  00000+0 -14941-3 0  9997
2 49302  87.9173 306.5671 0001647  97.6483 262.4837 13.19724977225391
ONEWEB-0377             
1 49303U 21090AA  26160.05649009  .00000037  00000+0  59274-4 0  9999
2 49303  87.9190 276.0563 0002166 100.6448 259.4929 13.20772062229443
ONEWEB-0378             
1 49304U 21090AB  26160.07667338  .00000024  00000+0  28143-4 0  9994
2 49304  87.9186 276.0573 0002012  96.5521 263.5842 13.20769660228714
ONEWEB-0379             
1 49305U 21090AC  26160.12160582  .00000084  00000+0  19315-3 0  9996
2 49305  87.8959 291.3159 0001912  95.6504 264.4843 13.14501857226502
ONEWEB-0380             
1 49306U 21090AD  26160.14854911 -.00000051  00000+0 -16090-3 0  9998
2 49306  87.9163 306.5736 0002057  97.8676 262.2690 13.19724277225363
ONEWEB-0381             
1 49307U 21090AE  26160.05298341  .00000070  00000+0  13995-3 0  9998
2 49307  87.9192 276.0615 0002134  94.5021 265.6356 13.20771576228755
ONEWEB-0382             
1 49308U 21090AF  26159.88798014  .00000062  00000+0  12060-3 0  9993
2 49308  87.9188 276.0889 0002063  92.4068 267.7302 13.20769455228727
ONEWEB-0383             
1 49309U 21090AG  26160.11524329  .00000211  00000+0  53519-3 0  9998
2 49309  87.8963 291.3082 0001857  94.8619 265.2722 13.14504961226539
ONEWEB-0384             
1 49310U 21090AH  26160.17990661  .00000152  00000+0  34193-3 0  9993
2 49310  87.9192 276.0740 0002097  87.4665 272.6708 13.20812692228777
ONEWEB-0385             
1 49311U 21090AJ  26160.03278265  .00000084  00000+0  17498-3 0  9991
2 49311  87.9189 276.0652 0002036  94.7394 265.3972 13.20772305228722
ONEWEB-0386             
1 49312U 21090AK  26159.82234479  .00000065  00000+0  12879-3 0  9993
2 49312  87.9193 276.0977 0001986  92.7994 267.3367 13.20771056228716
ONEWEB-0387             
1 49313U 21090AL  26160.03446551  .00000041  00000+0  69730-4 0  9998
2 49313  87.9178 276.0786 0002308  98.5898 261.5496 13.20772196228742
ONEWEB-0388             
1 49314U 21090AM  26160.14381148  .00000007  00000+0 -15875-4 0  9995
2 49314  87.9164 306.5727 0001917  93.1004 267.0348 13.19724192225359
ONEWEB-0389             
1 50469U 21132A   26160.07354361  .00000022  00000+0  24195-4 0  9995
2 50469  87.9138   7.4827 0002203  84.0651 276.0732 13.17647773217015
ONEWEB-0390             
1 50470U 21132B   26160.07523034  .00000062  00000+0  12610-3 0  9994
2 50470  87.9138   7.4832 0001904  93.7455 266.3894 13.17648273217016
ONEWEB-0391             
1 50471U 21132C   26160.07691921  .00000025  00000+0  31844-4 0  9996
2 50471  87.9138   7.4924 0002686  90.7736 269.3704 13.17647750217018
ONEWEB-0392             
1 50472U 21132D   26160.10730161  .00000075  00000+0  15923-3 0  9995
2 50472  87.9150   7.4538 0002221  85.5285 274.6100 13.17648429217057
ONEWEB-0393             
1 50473U 21132E   26160.08283132 -.00000031  00000+0 -11403-3 0  9997
2 50473  87.9140   7.4769 0002050  86.3831 273.7535 13.17649028217046
ONEWEB-0394             
1 50474U 21132F   26159.97931406  .00000062  00000+0  12503-3 0  9992
2 50474  87.9168 337.0755 0002031  87.1325 273.0040 13.18684469220519
ONEWEB-0395             
1 50475U 21132G   26160.07959249  .00000372  00000+0  10139-2 0  9997
2 50475  87.8889  22.6814 0001940  89.7036 270.4314 13.11415956214656
ONEWEB-0396             
1 50476U 21132H   26160.04844484  .00000102  00000+0  22643-3 0  9994
2 50476  87.9169 337.0740 0001941  88.4217 271.7138 13.18684072220567
ONEWEB-0397             
1 50477U 21132J   26159.98774840  .00000050  00000+0  94776-4 0  9993
2 50477  87.9169 337.0865 0001950  83.9615 276.1739 13.18684229220535
ONEWEB-0398             
1 50478U 21132K   26160.12365671 -.00000052  00000+0 -18235-3 0  9999
2 50478  87.8901  22.6628 0001824  93.8007 266.3329 13.11420183214559
ONEWEB-0399             
1 50479U 21132L   26160.11009464 -.00000578  00000+0 -16654-2 0  9999
2 50479  87.8901  22.6765 0002262  77.4890 282.6490 13.11417378214548
