OBJECT_NAME,OBJECT_ID,EPOCH,MEAN_MOTION,ECCENTRICITY,INCLINATION,RA_OF_ASC_NODE,ARG_OF_PERICENTER,MEAN_ANOMALY,EPHEMERIS_TYPE,CLASSIFICATION_TYPE,NORAD_CAT_ID,ELEMENT_SET_NO,REV_AT_EPOCH,BSTAR,MEAN_MOTION_DOT,MEAN_MOTION_DDOT
ONEWEB-0369,2021-090S,2026-06-09T03:29:21.431616,13.19724216,.0001777,87.9163,306.5770,95.5509,264.5826,0,U,49295,999,22535,-.14026E-4,.7E-7,0
ONEWEB-0370,2021-090T,2026-06-09T01:35:39.924384,13.20770130,.0002099,87.9191,276.0586,107.6767,252.4596,0,U,49296,999,22879,.27699E-5,.14E-6,0
ONEWEB-0371,2021-090U,2026-06-09T03:40:43.056768,13.19724167,.0001794,87.9170,306.5670,100.3201,259.8134,0,U,49297,999,22539,-.11423E-3,-.33E-6,0
ONEWEB-0372,2021-090V,2026-06-09T01:20:55.546944,13.20771256,.0001905,87.9190,276.0623,101.2446,258.8902,0,U,49298,999,22876,.11728E-4,.18E-6,0
ONEWEB-0373,2021-090W,2026-06-09T01:57:29.829600,13.20770862,.0002035,87.9188,276.0578,100.6181,259.5182,0,U,49299,999,22995,-.16049E-4,.6E-7,0
ONEWEB-0374,2021-090X,2026-06-09T03:01:58.249632,13.14502649,.0002287,87.8961,291.3039,87.7232,272.4159,0,U,49300,999,22650,.59009E-3,.232E-5,0
ONEWEB-0375,2021-090Y,2026-06-09T01:40:32.181024,13.20771032,.0002416,87.9192,276.0515,90.6603,269.4807,0,U,49301,999,22945,-.11442E-3,-.34E-6,0
ONEWEB-0376,2021-090Z,2026-06-09T03:38:26.830752,13.19724977,.0001647,87.9173,306.5671,97.6483,262.4837,0,U,49302,999,22539,-.14941E-3,-.47E-6,0
ONEWEB-0377,2021-090AA,2026-06-09T01:21:20.743776,13.20772062,.0002166,87.9190,276.0563,100.6448,259.4929,0,U,49303,999,22944,.59274E-4,.37E-6,0
ONEWEB-0378,2021-090AB,2026-06-09T01:50:24.580032,13.20769660,.0002012,87.9186,276.0573,96.5521,263.5842,0,U,49304,999,22871,.28143E-4,.24E-6,0
ONEWEB-0379,2021-090AC,2026-06-09T02:55:06.742848,13.14501857,.0001912,87.8959,291.3159,95.6504,264.4843,0,U,49305,999,22650,.19315E-3,.84E-6,0
ONEWEB-0380,2021-090AD,2026-06-09T03:33:54.643104,13.19724277,.0002057,87.9163,306.5736,97.8676,262.2690,0,U,49306,999,22536,-.1609E-3,-.51E-6,0
ONEWEB-0381,2021-090AE,2026-06-09T01:16:17.766624,13.20771576,.0002134,87.9192,276.0615,94.5021,265.6356,0,U,49307,999,22875,.13995E-3,.7E-6,0
ONEWEB-0382,2021-090AF,2026-06-08T21:18:41.484096,13.20769455,.0002063,87.9188,276.0889,92.4068,267.7302,0,U,49308,999,22872,.1206E-3,.62E-6,0
ONEWEB-0383,2021-090AG,2026-06-09T02:45:57.020256,13.14504961,.0001857,87.8963,291.3082,94.8619,265.2722,0,U,49309,999,22653,.53519E-3,.211E-5,0
ONEWEB-0384,2021-090AH,2026-06-09T04:19:03.931104,13.20812692,.0002097,87.9192,276.0740,87.4665,272.6708,0,U,49310,999,22877,.34193E-3,.152E-5,0
ONEWEB-0385,2021-090AJ,2026-06-09T00:47:12.420960,13.20772305,.0002036,87.9189,276.0652,94.7394,265.3972,0,U,49311,999,22872,.17498E-3,.84E-6,0
ONEWEB-0386,2021-090AK,2026-06-08T19:44:10.589856,13.20771056,.0001986,87.9193,276.0977,92.7994,267.3367,0,U,49312,999,22871,.12879E-3,.65E-6,0
ONEWEB-0387,2021-090AL,2026-06-09T00:49:37.820064,13.20772196,.0002308,87.9178,276.0786,98.5898,261.5496,0,U,49313,999,22874,.6973E-4,.41E-6,0
ONEWEB-0388,2021-090AM,2026-06-09T03:27:05.311872,13.19724192,.0001917,87.9164,306.5727,93.1004,267.0348,0,U,49314,999,22535,-.15875E-4,.7E-7,0
ONEWEB-0389,2021-132A,2026-06-09T01:45:54.167904,13.17647773,.0002203,87.9138,7.4827,84.0651,276.0732,0,U,50469,999,21701,.24195E-4,.22E-6,0
ONEWEB-0390,2021-132B,2026-06-09T01:48:19.901376,13.17648273,.0001904,87.9138,7.4832,93.7455,266.3894,0,U,50470,999,21701,.1261E-3,.62E-6,0
ONEWEB-0391,2021-132C,2026-06-09T01:50:45.819744,13.17647750,.0002686,87.9138,7.4924,90.7736,269.3704,0,U,50471,999,21701,.31844E-4,.25E-6,0
ONEWEB-0392,2021-132D,2026-06-09T02:34:30.859104,13.17648429,.0002221,87.9150,7.4538,85.5285,274.6100,0,U,50472,999,21705,.15923E-3,.75E-6,0
ONEWEB-0393,2021-132E,2026-06-09T01:59:16.626048,13.17649028,.000205,87.9140,7.4769,86.3831,273.7535,0,U,50473,999,21704,-.11403E-3,-.31E-6,0
ONEWEB-0394,2021-132F,2026-06-08T23:30:12.734784,13.18684469,.0002031,87.9168,337.0755,87.1325,273.0040,0,U,50474,999,22051,.12503E-3,.62E-6,0
ONEWEB-0395,2021-132G,2026-06-09T01:54:36.791136,13.11415956,.000194,87.8889,22.6814,89.7036,270.4314,0,U,50475,999,21465,.10139E-2,.372E-5,0
ONEWEB-0396,2021-132H,2026-06-09T01:09:45.634176,13.18684072,.0001941,87.9169,337.0740,88.4217,271.7138,0,U,50476,999,22056,.22643E-3,.102E-5,0
ONEWEB-0397,2021-132J,2026-06-08T23:42:21.461760,13.18684229,.000195,87.9169,337.0865,83.9615,276.1739,0,U,50477,999,22053,.94776E-4,.5E-6,0
ONEWEB-0398,2021-132K,2026-06-09T02:58:03.939744,13.11420183,.0001824,87.8901,22.6628,93.8007,266.3329,0,U,50478,999,21455,-.18235E-3,-.52E-6,0
ONEWEB-0399,2021-132L,2026-06-09T02:38:32.176896,13.11417378,.0002262,87.8901,22.6765,77.4890,282.6490,0,U,50479,999,21454,-.16654E-2,-.578E-5,0
